<?xml version="1.0" encoding="UTF-8"?>
<ndm xmlns:xsi="http://www.w3.org/2001/XMLSchema-instance" xsi:noNamespaceSchemaLocation="https://sanaregistry.org/r/ndmxml_unqualified/ndmxml-2.0.0-master-2.0.xsd">
<omm id="CCSDS_OMM_VERS" version="2.0">
<header><CREATION_DATE/><ORIGINATOR/></header><body><segment><metadata><OBJECT_NAME>ORBCOMM-X [-]</OBJECT_NAME><OBJECT_ID>1991-050C</OBJECT_ID><CENTER_NAME>EARTH</CENTER_NAME><REF_FRAME>TEME</REF_FRAME><TIME_SYSTEM>UTC</TIME_SYSTEM><MEAN_ELEMENT_THEORY>SGP4</MEAN_ELEMENT_THEORY></metadata><data><meanElements><EPOCH>2023-08-15T10:50:50.612352</EPOCH><MEAN_MOTION>14.42141539</MEAN_MOTION><ECCENTRICITY>.0004723</ECCENTRICITY><INCLINATION>98.4317</INCLINATION><RA_OF_ASC_NODE>294.0487</RA_OF_ASC_NODE><ARG_OF_PERICENTER>64.4410</ARG_OF_PERICENTER><MEAN_ANOMALY>295.7267</MEAN_ANOMALY></meanElements><tleParameters><EPHEMERIS_TYPE>0</EPHEMERIS_TYPE><CLASSIFICATION_TYPE>U</CLASSIFICATION_TYPE><NORAD_CAT_ID>21576</NORAD_CAT_ID><ELEMENT_SET_NO>999</ELEMENT_SET_NO><REV_AT_EPOCH>68548</REV_AT_EPOCH><BSTAR>.13771E-3</BSTAR><MEAN_MOTION_DOT>.409E-5</MEAN_MOTION_DOT><MEAN_MOTION_DDOT>0</MEAN_MOTION_DDOT></tleParameters></data></segment></body></omm>
<omm id="CCSDS_OMM_VERS" version="2.0">
<header><CREATION_DATE/><ORIGINATOR/></header><body><segment><metadata><OBJECT_NAME>ORBCOMM FM01 [-]</OBJECT_NAME><OBJECT_ID>1995-017A</OBJECT_ID><CENTER_NAME>EARTH</CENTER_NAME><REF_FRAME>TEME</REF_FRAME><TIME_SYSTEM>UTC</TIME_SYSTEM><MEAN_ELEMENT_THEORY>SGP4</MEAN_ELEMENT_THEORY></metadata><data><meanElements><EPOCH>2023-08-14T21:54:49.685184</EPOCH><MEAN_MOTION>14.76127931</MEAN_MOTION><ECCENTRICITY>.0007904</ECCENTRICITY><INCLINATION>69.9687</INCLINATION><RA_OF_ASC_NODE>289.7373</RA_OF_ASC_NODE><ARG_OF_PERICENTER>263.4245</ARG_OF_PERICENTER><MEAN_ANOMALY>96.6002</MEAN_ANOMALY></meanElements><tleParameters><EPHEMERIS_TYPE>0</EPHEMERIS_TYPE><CLASSIFICATION_TYPE>U</CLASSIFICATION_TYPE><NORAD_CAT_ID>23545</NORAD_CAT_ID><ELEMENT_SET_NO>999</ELEMENT_SET_NO><REV_AT_EPOCH>51324</REV_AT_EPOCH><BSTAR>.45961E-3</BSTAR><MEAN_MOTION_DOT>.3105E-4</MEAN_MOTION_DOT><MEAN_MOTION_DDOT>0</MEAN_MOTION_DDOT></tleParameters></data></segment></body></omm>
<omm id="CCSDS_OMM_VERS" version="2.0">
<header><CREATION_DATE/><ORIGINATOR/></header><body><segment><metadata><OBJECT_NAME>ORBCOMM FM02 [-]</OBJECT_NAME><OBJECT_ID>1995-017B</OBJECT_ID><CENTER_NAME>EARTH</CENTER_NAME><REF_FRAME>TEME</REF_FRAME><TIME_SYSTEM>UTC</TIME_SYSTEM><MEAN_ELEMENT_THEORY>SGP4</MEAN_ELEMENT_THEORY></metadata><data><meanElements><EPOCH>2023-08-15T09:40:08.196960</EPOCH><MEAN_MOTION>14.75520009</MEAN_MOTION><ECCENTRICITY>.0009476</ECCENTRICITY><INCLINATION>69.9719</INCLINATION><RA_OF_ASC_NODE>307.4457</RA_OF_ASC_NODE><ARG_OF_PERICENTER>255.2396</ARG_OF_PERICENTER><MEAN_ANOMALY>104.7701</MEAN_ANOMALY></meanElements><tleParameters><EPHEMERIS_TYPE>0</EPHEMERIS_TYPE><CLASSIFICATION_TYPE>U</CLASSIFICATION_TYPE><NORAD_CAT_ID>23546</NORAD_CAT_ID><ELEMENT_SET_NO>999</ELEMENT_SET_NO><REV_AT_EPOCH>51292</REV_AT_EPOCH><BSTAR>.56444E-3</BSTAR><MEAN_MOTION_DOT>.3777E-4</MEAN_MOTION_DOT><MEAN_MOTION_DDOT>0</MEAN_MOTION_DDOT></tleParameters></data></segment></body></omm>
<omm id="CCSDS_OMM_VERS" version="2.0">
<header><CREATION_DATE/><ORIGINATOR/></header><body><segment><metadata><OBJECT_NAME>ORBCOMM FM08 [-]</OBJECT_NAME><OBJECT_ID>1997-084A</OBJECT_ID><CENTER_NAME>EARTH</CENTER_NAME><REF_FRAME>TEME</REF_FRAME><TIME_SYSTEM>UTC</TIME_SYSTEM><MEAN_ELEMENT_THEORY>SGP4</MEAN_ELEMENT_THEORY></metadata><data><meanElements><EPOCH>2023-08-15T01:23:41.803872</EPOCH><MEAN_MOTION>14.41103665</MEAN_MOTION><ECCENTRICITY>.0006867</ECCENTRICITY><INCLINATION>45.0168</INCLINATION><RA_OF_ASC_NODE>341.1342</RA_OF_ASC_NODE><ARG_OF_PERICENTER>108.7584</ARG_OF_PERICENTER><MEAN_ANOMALY>251.4011</MEAN_ANOMALY></meanElements><tleParameters><EPHEMERIS_TYPE>0</EPHEMERIS_TYPE><CLASSIFICATION_TYPE>U</CLASSIFICATION_TYPE><NORAD_CAT_ID>25112</NORAD_CAT_ID><ELEMENT_SET_NO>999</ELEMENT_SET_NO><REV_AT_EPOCH>34444</REV_AT_EPOCH><BSTAR>.49526E-3</BSTAR><MEAN_MOTION_DOT>.1467E-4</MEAN_MOTION_DOT><MEAN_MOTION_DDOT>0</MEAN_MOTION_DDOT></tleParameters></data></segment></body></omm>
<omm id="CCSDS_OMM_VERS" version="2.0">
<header><CREATION_DATE/><ORIGINATOR/></header><body><segment><metadata><OBJECT_NAME>ORBCOMM FM10 [-]</OBJECT_NAME><OBJECT_ID>1997-084B</OBJECT_ID><CENTER_NAME>EARTH</CENTER_NAME><REF_FRAME>TEME</REF_FRAME><TIME_SYSTEM>UTC</TIME_SYSTEM><MEAN_ELEMENT_THEORY>SGP4</MEAN_ELEMENT_THEORY></metadata><data><meanElements><EPOCH>2023-08-15T01:15:31.369824</EPOCH><MEAN_MOTION>14.41055761</MEAN_MOTION><ECCENTRICITY>.0003848</ECCENTRICITY><INCLINATION>45.0183</INCLINATION><RA_OF_ASC_NODE>342.8485</RA_OF_ASC_NODE><ARG_OF_PERICENTER>80.4556</ARG_OF_PERICENTER><MEAN_ANOMALY>279.6728</MEAN_ANOMALY></meanElements><tleParameters><EPHEMERIS_TYPE>0</EPHEMERIS_TYPE><CLASSIFICATION_TYPE>U</CLASSIFICATION_TYPE><NORAD_CAT_ID>25113</NORAD_CAT_ID><ELEMENT_SET_NO>999</ELEMENT_SET_NO><REV_AT_EPOCH>34443</REV_AT_EPOCH><BSTAR>.5249E-3</BSTAR><MEAN_MOTION_DOT>.1562E-4</MEAN_MOTION_DOT><MEAN_MOTION_DDOT>0</MEAN_MOTION_DDOT></tleParameters></data></segment></body></omm>
<omm id="CCSDS_OMM_VERS" version="2.0">
<header><CREATION_DATE/><ORIGINATOR/></header><body><segment><metadata><OBJECT_NAME>ORBCOMM FM11 [+]</OBJECT_NAME><OBJECT_ID>1997-084C</OBJECT_ID><CENTER_NAME>EARTH</CENTER_NAME><REF_FRAME>TEME</REF_FRAME><TIME_SYSTEM>UTC</TIME_SYSTEM><MEAN_ELEMENT_THEORY>SGP4</MEAN_ELEMENT_THEORY></metadata><data><meanElements><EPOCH>2023-08-15T01:11:44.359008</EPOCH><MEAN_MOTION>14.40944786</MEAN_MOTION><ECCENTRICITY>.0004605</ECCENTRICITY><INCLINATION>45.0168</INCLINATION><RA_OF_ASC_NODE>342.7267</RA_OF_ASC_NODE><ARG_OF_PERICENTER>78.8802</ARG_OF_PERICENTER><MEAN_ANOMALY>281.2566</MEAN_ANOMALY></meanElements><tleParameters><EPHEMERIS_TYPE>0</EPHEMERIS_TYPE><CLASSIFICATION_TYPE>U</CLASSIFICATION_TYPE><NORAD_CAT_ID>25114</NORAD_CAT_ID><ELEMENT_SET_NO>999</ELEMENT_SET_NO><REV_AT_EPOCH>34442</REV_AT_EPOCH><BSTAR>.51503E-3</BSTAR><MEAN_MOTION_DOT>.1526E-4</MEAN_MOTION_DOT><MEAN_MOTION_DDOT>0</MEAN_MOTION_DDOT></tleParameters></data></segment></body></omm>
<omm id="CCSDS_OMM_VERS" version="2.0">
<header><CREATION_DATE/><ORIGINATOR/></header><body><segment><metadata><OBJECT_NAME>ORBCOMM FM12 [-]</OBJECT_NAME><OBJECT_ID>1997-084D</OBJECT_ID><CENTER_NAME>EARTH</CENTER_NAME><REF_FRAME>TEME</REF_FRAME><TIME_SYSTEM>UTC</TIME_SYSTEM><MEAN_ELEMENT_THEORY>SGP4</MEAN_ELEMENT_THEORY></metadata><data><meanElements><EPOCH>2023-08-14T17:28:56.191296</EPOCH><MEAN_MOTION>14.40940619</MEAN_MOTION><ECCENTRICITY>.0003715</ECCENTRICITY><INCLINATION>45.0172</INCLINATION><RA_OF_ASC_NODE>343.8924</RA_OF_ASC_NODE><ARG_OF_PERICENTER>81.5064</ARG_OF_PERICENTER><MEAN_ANOMALY>278.6206</MEAN_ANOMALY></meanElements><tleParameters><EPHEMERIS_TYPE>0</EPHEMERIS_TYPE><CLASSIFICATION_TYPE>U</CLASSIFICATION_TYPE><NORAD_CAT_ID>25115</NORAD_CAT_ID><ELEMENT_SET_NO>999</ELEMENT_SET_NO><REV_AT_EPOCH>34438</REV_AT_EPOCH><BSTAR>.48282E-3</BSTAR><MEAN_MOTION_DOT>.1421E-4</MEAN_MOTION_DOT><MEAN_MOTION_DDOT>0</MEAN_MOTION_DDOT></tleParameters></data></segment></body></omm>
<omm id="CCSDS_OMM_VERS" version="2.0">
<header><CREATION_DATE/><ORIGINATOR/></header><body><segment><metadata><OBJECT_NAME>ORBCOMM FM09 [-]</OBJECT_NAME><OBJECT_ID>1997-084E</OBJECT_ID><CENTER_NAME>EARTH</CENTER_NAME><REF_FRAME>TEME</REF_FRAME><TIME_SYSTEM>UTC</TIME_SYSTEM><MEAN_ELEMENT_THEORY>SGP4</MEAN_ELEMENT_THEORY></metadata><data><meanElements><EPOCH>2023-08-15T08:36:09.514080</EPOCH><MEAN_MOTION>14.40923212</MEAN_MOTION><ECCENTRICITY>.0004523</ECCENTRICITY><INCLINATION>45.0179</INCLINATION><RA_OF_ASC_NODE>341.5135</RA_OF_ASC_NODE><ARG_OF_PERICENTER>60.5026</ARG_OF_PERICENTER><MEAN_ANOMALY>299.6274</MEAN_ANOMALY></meanElements><tleParameters><EPHEMERIS_TYPE>0</EPHEMERIS_TYPE><CLASSIFICATION_TYPE>U</CLASSIFICATION_TYPE><NORAD_CAT_ID>25116</NORAD_CAT_ID><ELEMENT_SET_NO>999</ELEMENT_SET_NO><REV_AT_EPOCH>34447</REV_AT_EPOCH><BSTAR>.51376E-3</BSTAR><MEAN_MOTION_DOT>.1521E-4</MEAN_MOTION_DOT><MEAN_MOTION_DDOT>0</MEAN_MOTION_DDOT></tleParameters></data></segment></body></omm>

</ndm>
