ORBCOMM-X [-]           
1 21576U 91050C   23227.45197468  .00000409  00000+0  13771-3 0  9990
2 21576  98.4317 294.0487 0004723  64.4410 295.7267 14.42141539685487
ORBCOMM FM01 [-]        
1 23545U 95017A   23226.91307506  .00003105  00000+0  45961-3 0  9993
2 23545  69.9687 289.7373 0007904 263.4245  96.6002 14.76127931513240
ORBCOMM FM02 [-]        
1 23546U 95017B   23227.40287265  .00003777  00000+0  56444-3 0  9991
2 23546  69.9719 307.4457 0009476 255.2396 104.7701 14.75520009512923
ORBCOMM FM08 [-]        
1 25112U 97084A   23227.05812273  .00001467  00000+0  49526-3 0  9999
2 25112  45.0168 341.1342 0006867 108.7584 251.4011 14.41103665344449
ORBCOMM FM10 [-]        
1 25113U 97084B   23227.05244641  .00001562  00000+0  52490-3 0  9998
2 25113  45.0183 342.8485 0003848  80.4556 279.6728 14.41055761344433
ORBCOMM FM11 [+]        
1 25114U 97084C   23227.04981897  .00001526  00000+0  51503-3 0  9993
2 25114  45.0168 342.7267 0004605  78.8802 281.2566 14.40944786344422
ORBCOMM FM12 [-]        
1 25115U 97084D   23226.72842814  .00001421  00000+0  48282-3 0  9997
2 25115  45.0172 343.8924 0003715  81.5064 278.6206 14.40940619344389
ORBCOMM FM09 [-]        
1 25116U 97084E   23227.35844345  .00001521  00000+0  51376-3 0  9998
2 25116  45.0179 341.5135 0004523  60.5026 299.6274 14.40923212344477
